COMMENT,ORIGINATOR,NORAD_CAT_ID,OBJECT_NAME,OBJECT_TYPE,CLASSIFICATION_TYPE,INTLDES,EPOCH,EPOCH_MICROSECONDS,MEAN_MOTION,ECCENTRICITY,INCLINATION,RA_OF_ASC_NODE,ARG_OF_PERICENTER,MEAN_ANOMALY,EPHEMERIS_TYPE,ELEMENT_SET_NO,REV_AT_EPOCH,BSTAR,MEAN_MOTION_DOT,MEAN_MOTION_DDOT,FILE,TLE_LINE0,TLE_LINE1,TLE_LINE2,OBJECT_ID,OBJECT_NUMBER,SEMIMAJOR_AXIS,PERIOD,APOGEE,PERIGEE,DECAYED
"GENERATED VIA SPACETRACK.ORG API","18 SPCS","47950","OBJECT U","TBA","U","21022U","2021-05-26 20:35:21","232896","15.05637492","0.0023136","97.5597","49.4309","30.8728","33.6544","0","999","980","0.000069725","0.0000095","0","3043367","0 OBJECT U","1 47950U 21022U   21146.85788464  .00000950  00000-0  69725-4 0  9993","2 47950  97.5597  49.4309 0023136  30.8728  33.6544 15.05637492  9805","2021-022U","47950","6927.687","95.641","565.579","533.524","0"
"GENERATED VIA SPACETRACK.ORG API","18 SPCS","47950","OBJECT U","TBA","U","21022U","2021-05-27 04:56:56","389344","15.05637988","0.0023134","97.5596","49.7721","29.7349","121.6217","0","999","985","0.000067748","0.00000921","0","3043569","0 OBJECT U","1 47950U 21022U   21147.20620821  .00000921  00000-0  67748-4 0  9996","2 47950  97.5596  49.7721 0023134  29.7349 121.6217 15.05637988  9859","2021-022U","47950","6927.685","95.641","565.577","533.523","0"
"GENERATED VIA SPACETRACK.ORG API","18 SPCS","47950","OBJECT U","TBA","U","21022U","2021-05-27 08:05:03","51168","15.05637934","0.0023094","97.5595","49.9","29.2927","109.685","0","999","987","0.000065281","0.00000885","0","3043684","0 OBJECT U","1 47950U 21022U   21147.33684087  .00000885  00000-0  65281-4 0  9993","2 47950  97.5595  49.9000 0023094  29.2927 109.6850 15.05637934  9874","2021-022U","47950","6927.685","95.641","565.549","533.551","0"
"GENERATED VIA SPACETRACK.ORG API","18 SPCS","47950","OBJECT U","TBA","U","21022U","2021-05-27 20:30:52","515072","15.05638415","0.0023063","97.5588","50.4074","27.712","36.8535","0","999","995","0.000060887","0.00000822","0","3043784","0 OBJECT U","1 47950U 21022U   21147.85477448  .00000822  00000-0  60887-4 0  9999","2 47950  97.5588  50.4074 0023063  27.7120  36.8535 15.05638415  9953","2021-022U","47950","6927.684","95.640","565.526","533.571","0"
"GENERATED VIA SPACETRACK.ORG API","18 SPCS","47950","OBJECT U","TBA","U","21022U","2021-05-28 11:21:44","491104","15.05638871","0.0022966","97.5585","51.0133","25.789","149.9737","0","999","1004","0.000055455","0.00000743","0","3044339","0 OBJECT U","1 47950U 21022U   21148.47343161  .00000743  00000-0  55455-4 0  9999","2 47950  97.5585  51.0133 0022966  25.7890 149.9737 15.05638871 10044","2021-022U","47950","6927.682","95.640","565.457","533.637","0"
"GENERATED VIA SPACETRACK.ORG API","18 SPCS","47950","OBJECT U","TBA","U","21022U","2021-05-28 11:21:44","491104","15.05638871","0.0022966","97.5585","51.0133","25.789","149.9737","0","999","1004","0.000055455","0.00000743","0","3044435","0 OBJECT U","1 47950U 21022U   21148.47343161  .00000743  00000-0  55455-4 0  9999","2 47950  97.5585  51.0133 0022966  25.7890 149.9737 15.05638871 10044","2021-022U","47950","6927.682","95.640","565.457","533.637","0"
"GENERATED VIA SPACETRACK.ORG API","18 SPCS","47950","OBJECT U","TBA","U","21022U","2021-05-28 22:19:08","767776","15.05639661","0.0022951","97.5586","51.4605","24.2929","104.451","0","999","1011","0.000055522","0.00000744","0","3044593","0 OBJECT U","1 47950U 21022U   21148.92996259  .00000744  00000-0  55522-4 0  9997","2 47950  97.5586  51.4605 0022951  24.2929 104.4510 15.05639661 10115","2021-022U","47950","6927.680","95.640","565.445","533.645","0"
"GENERATED VIA SPACETRACK.ORG API","18 SPCS","47950","OBJECT U","TBA","U","21022U","2021-05-29 01:26:23","439264","15.05639968","0.0022952","97.5586","51.5878","23.8971","89.2119","0","999","1013","0.000055985","0.0000075","0","3044746","0 OBJECT U","1 47950U 21022U   21149.05999351  .00000750  00000-0  55985-4 0  9998","2 47950  97.5586  51.5878 0022952  23.8971  89.2119 15.05639968 10138","2021-022U","47950","6927.679","95.640","565.444","533.644","0"
"GENERATED VIA SPACETRACK.ORG API","18 SPCS","47950","OBJECT U","TBA","U","21022U","2021-05-29 09:24:24","15168","15.05640211","0.0022896","97.5584","51.9127","22.7813","88.4716","0","999","1018","0.000053431","0.00000713","0","3044974","0 OBJECT U","1 47950U 21022U   21149.39194462  .00000713  00000-0  53431-4 0  9998","2 47950  97.5584  51.9127 0022896  22.7813  88.4716 15.05640211 10189","2021-022U","47950","6927.678","95.640","565.405","533.682","0"
"GENERATED VIA SPACETRACK.ORG API","18 SPCS","47950","OBJECT U","TBA","U","21022U","2021-05-29 14:04:21","940320","15.0564062","0.0022922","97.5584","52.1033","22.0892","62.3197","0","999","1021","0.000054477","0.00000728","0","3045091","0 OBJECT U","1 47950U 21022U   21149.58636505  .00000728  00000-0  54477-4 0  9995","2 47950  97.5584  52.1033 0022922  22.0892  62.3197 15.05640620 10210","2021-022U","47950","6927.677","95.640","565.422","533.662","0"
"GENERATED VIA SPACETRACK.ORG API","18 SPCS","47950","OBJECT U","TBA","U","21022U","2021-05-29 18:39:02","990880","15.05641137","0.0022898","97.5583","52.2903","21.4845","16.2155","0","999","1024","0.000056176","0.00000753","0","3045250","0 OBJECT U","1 47950U 21022U   21149.77711795  .00000753  00000-0  56176-4 0  9997","2 47950  97.5583  52.2903 0022898  21.4845  16.2155 15.05641137 10248","2021-022U","47950","6927.675","95.640","565.403","533.677","0"
"GENERATED VIA SPACETRACK.ORG API","18 SPCS","47950","OBJECT U","TBA","U","21022U","2021-05-29 21:58:05","115072","15.05641332","0.0022897","97.5583","52.4257","21.0157","45.4031","0","999","1026","0.000055846","0.00000748","0","3045320","0 OBJECT U","1 47950U 21022U   21149.91533698  .00000748  00000-0  55846-4 0  9994","2 47950  97.5583  52.4257 0022897  21.0157  45.4031 15.05641332 10269","2021-022U","47950","6927.675","95.640","565.402","533.677","0"
"GENERATED VIA SPACETRACK.ORG API","18 SPCS","47950","OBJECT U","TBA","U","21022U","2021-05-30 01:23:05","698176","15.05641646","0.0022889","97.5583","52.5652","20.5368","97.0755","0","999","1028","0.000056387","0.00000756","0","3045442","0 OBJECT U","1 47950U 21022U   21150.05770484  .00000756  00000-0  56387-4 0  9997","2 47950  97.5583  52.5652 0022889  20.5368  97.0755 15.05641646 10284","2021-022U","47950","6927.674","95.640","565.396","533.682","0"
"GENERATED VIA SPACETRACK.ORG API","18 SPCS","47950","OBJECT U","TBA","U","21022U","2021-05-30 12:34:59","52576","15.05642099","0.0022821","97.558","53.0222","19.0021","106.0805","0","999","1035","0.000054288","0.00000726","0","3045644","0 OBJECT U","1 47950U 21022U   21150.52429459  .00000726  00000-0  54288-4 0  9997","2 47950  97.5580  53.0222 0022821  19.0021 106.0805 15.05642099 10353","2021-022U","47950","6927.672","95.640","565.347","533.728","0"
"GENERATED VIA SPACETRACK.ORG API","18 SPCS","47950","OBJECT U","TBA","U","21022U","2021-05-30 12:34:59","52576","15.05642099","0.0022821","97.558","53.0222","19.0021","106.0805","0","999","1035","0.000054288","0.00000726","0","3045672","0 OBJECT U","1 47950U 21022U   21150.52429459  .00000726  00000-0  54288-4 0  9997","2 47950  97.5580  53.0222 0022821  19.0021 106.0805 15.05642099 10353","2021-022U","47950","6927.672","95.640","565.347","533.728","0"
"GENERATED VIA SPACETRACK.ORG API","18 SPCS","47950","OBJECT U","TBA","U","21022U","2021-05-30 18:48:12","371328","15.05642733","0.0022765","97.5579","53.2762","18.2386","70.81","0","999","1039","0.000056265","0.00000754","0","3045986","0 OBJECT U","1 47950U 21022U   21150.78347652  .00000754  00000-0  56265-4 0  9997","2 47950  97.5579  53.2762 0022765  18.2386  70.8100 15.05642733 10399","2021-022U","47950","6927.670","95.640","565.306","533.765","0"
"GENERATED VIA SPACETRACK.ORG API","18 SPCS","47950","OBJECT U","TBA","U","21022U","2021-05-30 18:48:12","371328","15.05642733","0.0022765","97.5579","53.2762","18.2386","70.81","0","999","1039","0.000056265","0.00000754","0","3045999","0 OBJECT U","1 47950U 21022U   21150.78347652  .00000754  00000-0  56265-4 0  9997","2 47950  97.5579  53.2762 0022765  18.2386  70.8100 15.05642733 10399","2021-022U","47950","6927.670","95.640","565.306","533.765","0"
"GENERATED VIA SPACETRACK.ORG API","18 SPCS","47950","OBJECT U","TBA","U","21022U","2021-05-31 04:39:23","988960","15.05643188","0.0022739","97.5577","53.6783","16.8104","136.1548","0","999","1045","0.000054355","0.00000727","0","3046190","0 OBJECT U","1 47950U 21022U   21151.19402765  .00000727  00000-0  54355-4 0  9998","2 47950  97.5577  53.6783 0022739  16.8104 136.1548 15.05643188 10451","2021-022U","47950","6927.669","95.640","565.287","533.781","0"
"GENERATED VIA SPACETRACK.ORG API","18 SPCS","47950","OBJECT U","TBA","U","21022U","2021-05-31 12:30:35","176608","15.05642882","0.0022675","97.5575","53.9984","15.7011","109.7405","0","999","1050","0.000048706","0.00000645","0","3046434","0 OBJECT U","1 47950U 21022U   21151.52124047  .00000645  00000-0  48706-4 0  9991","2 47950  97.5575  53.9984 0022675  15.7011 109.7405 15.05642882 10503","2021-022U","47950","6927.670","95.640","565.243","533.826","0"
"GENERATED VIA SPACETRACK.ORG API","18 SPCS","47950","OBJECT U","TBA","U","21022U","2021-05-31 12:30:35","176608","15.05642882","0.0022675","97.5575","53.9984","15.7011","109.7405","0","999","1050","0.000048706","0.00000645","0","3046445","0 OBJECT U","1 47950U 21022U   21151.52124047  .00000645  00000-0  48706-4 0  9991","2 47950  97.5575  53.9984 0022675  15.7011 109.7405 15.05642882 10503","2021-022U","47950","6927.670","95.640","565.243","533.826","0"
